CCSDS_OMM_VERS = 2.0
CREATION_DATE  = 
ORIGINATOR     = 

OBJECT_NAME    = ISS OBJECT XW
OBJECT_ID      = 1998-067XW
CENTER_NAME    = EARTH
REF_FRAME      = TEME
TIME_SYSTEM    = UTC
MEAN_ELEMENT_THEORY = SGP/SGP4

EPOCH          = 2026-02-17T20:34:05.332224
MEAN_MOTION    = 15.63556314
ECCENTRICITY   = .00028599
INCLINATION    = 51.6265
RA_OF_ASC_NODE = 166.2147
ARG_OF_PERICENTER = 349.6271
MEAN_ANOMALY   = 10.4664

EPHEMERIS_TYPE = 0
CLASSIFICATION_TYPE = U
NORAD_CAT_ID   = 66910
ELEMENT_SET_NO = 999
REV_AT_EPOCH   = 1207
BSTAR          = .99255222E-3
MEAN_MOTION_DOT = .94482E-3
MEAN_MOTION_DDOT = 0

CCSDS_OMM_VERS = 2.0
CREATION_DATE  = 
ORIGINATOR     = 

OBJECT_NAME    = ISS OBJECT XX
OBJECT_ID      = 1998-067XX
CENTER_NAME    = EARTH
REF_FRAME      = TEME
TIME_SYSTEM    = UTC
MEAN_ELEMENT_THEORY = SGP/SGP4

EPOCH          = 2026-02-17T12:55:29.422272
MEAN_MOTION    = 15.67071229
ECCENTRICITY   = .0004567
INCLINATION    = 51.6243
RA_OF_ASC_NODE = 167.0837
ARG_OF_PERICENTER = 339.0824
MEAN_ANOMALY   = 20.9985

EPHEMERIS_TYPE = 0
CLASSIFICATION_TYPE = U
NORAD_CAT_ID   = 66911
ELEMENT_SET_NO = 999
REV_AT_EPOCH   = 1202
BSTAR          = .13082E-2
MEAN_MOTION_DOT = .144455E-2
MEAN_MOTION_DDOT = 0

CCSDS_OMM_VERS = 2.0
CREATION_DATE  = 
ORIGINATOR     = 

OBJECT_NAME    = ISS OBJECT XY
OBJECT_ID      = 1998-067XY
CENTER_NAME    = EARTH
REF_FRAME      = TEME
TIME_SYSTEM    = UTC
MEAN_ELEMENT_THEORY = SGP/SGP4

EPOCH          = 2026-02-17T13:17:12.063840
MEAN_MOTION    = 15.60143157
ECCENTRICITY   = .0000932
INCLINATION    = 51.6291
RA_OF_ASC_NODE = 168.6991
ARG_OF_PERICENTER = 354.2320
MEAN_ANOMALY   = 5.8663

EPHEMERIS_TYPE = 0
CLASSIFICATION_TYPE = U
NORAD_CAT_ID   = 66912
ELEMENT_SET_NO = 999
REV_AT_EPOCH   = 1200
BSTAR          = .81767E-3
MEAN_MOTION_DOT = .67824E-3
MEAN_MOTION_DDOT = 0

CCSDS_OMM_VERS = 2.0
CREATION_DATE  = 
ORIGINATOR     = 

OBJECT_NAME    = ISS OBJECT XZ
OBJECT_ID      = 1998-067XZ
CENTER_NAME    = EARTH
REF_FRAME      = TEME
TIME_SYSTEM    = UTC
MEAN_ELEMENT_THEORY = SGP/SGP4

EPOCH          = 2026-02-17T13:26:20.762592
MEAN_MOTION    = 15.50177657
ECCENTRICITY   = .0010438
INCLINATION    = 51.6311
RA_OF_ASC_NODE = 171.7382
ARG_OF_PERICENTER = 120.3988
MEAN_ANOMALY   = 239.8034

EPHEMERIS_TYPE = 0
CLASSIFICATION_TYPE = U
NORAD_CAT_ID   = 67683
ELEMENT_SET_NO = 999
REV_AT_EPOCH   = 166
BSTAR          = .59633E-3
MEAN_MOTION_DOT = .34002E-3
MEAN_MOTION_DDOT = 0

CCSDS_OMM_VERS = 2.0
CREATION_DATE  = 
ORIGINATOR     = 

OBJECT_NAME    = GXIBA-1
OBJECT_ID      = 1998-067YA
CENTER_NAME    = EARTH
REF_FRAME      = TEME
TIME_SYSTEM    = UTC
MEAN_ELEMENT_THEORY = SGP/SGP4

EPOCH          = 2026-02-17T13:18:50.345568
MEAN_MOTION    = 15.51206196
ECCENTRICITY   = .0012007
INCLINATION    = 51.6311
RA_OF_ASC_NODE = 171.7048
ARG_OF_PERICENTER = 113.2004
MEAN_ANOMALY   = 247.0252

EPHEMERIS_TYPE = 0
CLASSIFICATION_TYPE = U
NORAD_CAT_ID   = 67684
ELEMENT_SET_NO = 999
REV_AT_EPOCH   = 166
BSTAR          = .1004E-2
MEAN_MOTION_DOT = .59962E-3
MEAN_MOTION_DDOT = 0

CCSDS_OMM_VERS = 2.0
CREATION_DATE  = 
ORIGINATOR     = 

OBJECT_NAME    = CORAL
OBJECT_ID      = 1998-067YB
CENTER_NAME    = EARTH
REF_FRAME      = TEME
TIME_SYSTEM    = UTC
MEAN_ELEMENT_THEORY = SGP/SGP4

EPOCH          = 2026-02-17T21:09:00.064800
MEAN_MOTION    = 15.50382591
ECCENTRICITY   = .00123008
INCLINATION    = 51.6310
RA_OF_ASC_NODE = 170.1343
ARG_OF_PERICENTER = 117.1284
MEAN_ANOMALY   = 243.0961

EPHEMERIS_TYPE = 0
CLASSIFICATION_TYPE = U
NORAD_CAT_ID   = 67685
ELEMENT_SET_NO = 999
REV_AT_EPOCH   = 171
BSTAR          = .69545293E-3
MEAN_MOTION_DOT = .40088E-3
MEAN_MOTION_DDOT = 0

CCSDS_OMM_VERS = 2.0
CREATION_DATE  = 
ORIGINATOR     = 

OBJECT_NAME    = ISS OBJECT YC
OBJECT_ID      = 1998-067YC
CENTER_NAME    = EARTH
REF_FRAME      = TEME
TIME_SYSTEM    = UTC
MEAN_ELEMENT_THEORY = SGP/SGP4

EPOCH          = 2026-02-17T13:23:32.567712
MEAN_MOTION    = 15.50561623
ECCENTRICITY   = .0007773
INCLINATION    = 51.6320
RA_OF_ASC_NODE = 171.7264
ARG_OF_PERICENTER = 88.8855
MEAN_ANOMALY   = 271.3025

EPHEMERIS_TYPE = 0
CLASSIFICATION_TYPE = U
NORAD_CAT_ID   = 67686
ELEMENT_SET_NO = 999
REV_AT_EPOCH   = 166
BSTAR          = .73145E-3
MEAN_MOTION_DOT = .42395E-3
MEAN_MOTION_DDOT = 0

CCSDS_OMM_VERS = 2.0
CREATION_DATE  = 
ORIGINATOR     = 

OBJECT_NAME    = LEOPARD
OBJECT_ID      = 1998-067YD
CENTER_NAME    = EARTH
REF_FRAME      = TEME
TIME_SYSTEM    = UTC
MEAN_ELEMENT_THEORY = SGP/SGP4

EPOCH          = 2026-02-17T14:58:19.655040
MEAN_MOTION    = 15.50286093
ECCENTRICITY   = .00078895
INCLINATION    = 51.6322
RA_OF_ASC_NODE = 171.4167
ARG_OF_PERICENTER = 91.8390
MEAN_ANOMALY   = 268.3503

EPHEMERIS_TYPE = 0
CLASSIFICATION_TYPE = U
NORAD_CAT_ID   = 67687
ELEMENT_SET_NO = 999
REV_AT_EPOCH   = 159
BSTAR          = .66032976E-3
MEAN_MOTION_DOT = .37832E-3
MEAN_MOTION_DDOT = 0

CCSDS_OMM_VERS = 2.0
CREATION_DATE  = 
ORIGINATOR     = 

OBJECT_NAME    = ISS OBJECT YE
OBJECT_ID      = 1998-067YE
CENTER_NAME    = EARTH
REF_FRAME      = TEME
TIME_SYSTEM    = UTC
MEAN_ELEMENT_THEORY = SGP/SGP4

EPOCH          = 2026-02-17T14:56:52.657152
MEAN_MOTION    = 15.50474672
ECCENTRICITY   = .00077405
INCLINATION    = 51.6318
RA_OF_ASC_NODE = 171.4087
ARG_OF_PERICENTER = 89.9843
MEAN_ANOMALY   = 270.2033

EPHEMERIS_TYPE = 0
CLASSIFICATION_TYPE = U
NORAD_CAT_ID   = 67688
ELEMENT_SET_NO = 999
REV_AT_EPOCH   = 159
BSTAR          = .74973135E-3
MEAN_MOTION_DOT = .43336E-3
MEAN_MOTION_DDOT = 0

CCSDS_OMM_VERS = 2.0
CREATION_DATE  = 
ORIGINATOR     = 

OBJECT_NAME    = CREW DRAGON 12
OBJECT_ID      = 2026-031A
CENTER_NAME    = EARTH
REF_FRAME      = TEME
TIME_SYSTEM    = UTC
MEAN_ELEMENT_THEORY = SGP/SGP4

EPOCH          = 2026-02-17T19:52:32.520288
MEAN_MOTION    = 15.48671179
ECCENTRICITY   = .00109766
INCLINATION    = 51.6322
RA_OF_ASC_NODE = 170.5300
ARG_OF_PERICENTER = 108.9064
MEAN_ANOMALY   = 251.3115

EPHEMERIS_TYPE = 0
CLASSIFICATION_TYPE = U
NORAD_CAT_ID   = 67796
ELEMENT_SET_NO = 999
REV_AT_EPOCH   = 67
BSTAR          = .18560473E-3
MEAN_MOTION_DOT = .9688E-4
MEAN_MOTION_DDOT = 0

